CUTE-1 (CO-55)          
1 27844U 03031E   26194.45028445  .00000157  00000+0  86848-4 0  9996
2 27844  98.6742 202.6793 0010803 107.1223 253.1140 14.24350896195418
CUBESAT XI-IV (CO-57)   
1 27848U 03031J   26194.52222380  .00000129  00000+0  75510-4 0  9995
2 27848  98.6773 202.4416 0010486 123.7879 236.4299 14.23634003195125
CUBESAT XI-V            
1 28895U 05043F   26194.42545375  .00000720  00000+0  12097-3 0  9991
2 28895  98.3010 350.6030 0015194 120.4468 239.8242 14.72699773105615
CUTE-1.7+APD II (CO-65) 
1 32785U 08021C   26194.89540332  .00003221  00000+0  20405-3 0  9993
2 32785  97.8288 176.8764 0007148 304.7170  55.3385 15.09693670989225
CANX-2                  
1 32790U 08021H   26194.87027828  .00001884  00000+0  13437-3 0  9997
2 32790  97.8656 175.1723 0008842 323.2603  36.8016 15.05801950988824
SEEDS II (CO-66)        
1 32791U 08021J   26194.50259132  .00010586  00000+0  32808-3 0  9995
2 32791  97.7522 193.6748 0002885 159.9785 200.1570 15.33629018991328
SWISSCUBE               
1 35932U 09051B   26194.71417647  .00000487  00000+0  10573-3 0  9993
2 35932  98.4010 103.0624 0007797 122.9504 237.2447 14.62529232893033
BEESAT-1                
1 35933U 09051C   26194.73748186  .00000394  00000+0  88826-4 0  9995
2 35933  98.3937 102.6657 0006039 133.6539 226.5163 14.61760532893065
ITUPSAT1                
1 35935U 09051E   26194.68314044  .00000364  00000+0  85196-4 0  9997
2 35935  98.4020 101.7741 0007976 147.4965 212.6727 14.60477451892607
TISAT 1                 
1 36799U 10035E   26194.76217736  .00011528  00000+0  36768-3 0  9993
2 36799  98.0711 143.6911 0004388 122.4638 237.7026 15.32696096871770
STRAND-1                
1 39090U 13009E   26194.72101667  .00000137  00000+0  60330-4 0  9992
2 39090  98.3932  14.3039 0009339 145.1718 215.0081 14.37178346700871
BRITE-AUSTRIA           
1 39091U 13009F   26194.74540514  .00000083  00000+0  42755-4 0  9994
2 39091  98.4007  13.5254 0010683 154.7974 205.3736 14.36552149700864
NEE-01 PEGASO           
1 39151U 13018B   26194.85973654  .00001088  00000+0  10827-3 0  9998
2 39151  98.1251 339.8978 0013652  78.3095 281.9655 14.93785263714683
POPACS 2                
1 39269U 13055E   26194.20595882  .00013879 -91286-6  22645-3 0  9997
2 39269  80.9920 114.4009 0415091 110.2648 254.3692 14.91964314667091
POPACS 3                
1 39270U 13055F   26194.43169832  .00008706  00000+0  20653-3 0  9992
2 39270  80.9985 200.7186 0549007 350.0516   9.0141 14.56630802642373
ZACUBE-1 (TSHEPISOSAT)  
1 39417U 13066B   26194.86830117  .00001337  00000+0  10671-3 0  9997
2 39417  97.8009 157.3372 0043946 159.4655 200.8348 15.01325493684734
WNISAT-1                
1 39423U 13066H   26194.83770181  .00000632  00000+0  12275-3 0  9994
2 39423  97.7233 342.1067 0163808 147.5671 213.5726 14.58118158670612
TRITON-1                
1 39427U 13066M   26194.83480350  .00000746  00000+0  94761-4 0  9991
2 39427  97.8228 104.0337 0090474 146.5026 214.1955 14.81790736678036
GOMX-1                  
1 39430U 13066Q   26194.80944737  .00000861  00000+0  13575-3 0  9997
2 39430  97.6473  33.5927 0128418 352.6714   7.2612 14.69541249673827
CUBEBUG-2 (LO-74)       
1 39440U 13066AA  26194.85564855  .00001982  00000+0  18634-3 0  9998
2 39440  97.8911 143.9522 0055843 299.8965  59.6713 14.93961470680971
NEE-02 KRYSAOR          
1 39441U 13066AB  26194.79460108  .00001207  00000+0  13694-3 0  9999
2 39441  97.8897 133.8221 0065556 343.8948  16.0182 14.86735376680155
FUNCUBE-1 (AO-73)       
1 39444U 13066AE  26194.43695187  .00003565  00000+0  22113-3 0  9995
2 39444  97.8287 166.4387 0038020 113.3139 247.2098 15.09805136683621
UWE-3                   
1 39446U 13066AG  26194.81649093  .00001855  00000+0  16225-3 0  9991
2 39446  97.8703 151.0751 0047496 229.2786 130.4306 14.97193233681563
BRITE-CA1 (TORONTO)     
1 40020U 14033L   26194.87563814  .00000531  00000+0  87417-4 0  9990
2 40020  97.9770 323.3165 0078341 190.4879 169.4699 14.72721023646145
DUCHIFAT-1              
1 40021U 14033M   26194.70509310  .00087109  00000+0  69968-3 0  9990
2 40021  98.0429 257.7182 0002261 251.1846 108.9169 15.70713406659908
NANOSATC-BR1            
1 40024U 14033Q   26194.66023610  .00010203  00000+0  32983-3 0  9990
2 40024  98.0712 229.4089 0005323 100.8621 259.3218 15.32295994658035
QB50P1                  
1 40025U 14033R   26194.50911713  .00004875  00000+0  23878-3 0  9995
2 40025  98.0963 207.5077 0010348 130.1673 230.0467 15.18650045657020
QB50P2                  
1 40032U 14033Y   26194.44751392  .00003667  00000+0  19750-3 0  9993
2 40032  98.0758 192.9699 0009357  88.7327 271.4976 15.15492857656642
PERSEUS-M2              
1 40037U 14033AD  26194.75874172  .00001474  00000+0  13819-3 0  9998
2 40037  97.9972 145.8428 0010736 203.6931 156.3796 14.95589491654751
PERSEUS-M1              
1 40039U 14033AF  26194.79647293  .00001289  00000+0  12116-3 0  9999
2 40039  97.9652 139.3677 0010828 201.1513 158.9261 14.95712422654615
